STARLINK-4431
1 53486U 22099X   26092.86654560  .00201985  00000+0  11776-1 0  9994
2 53486  97.6023 214.0971 0001380 124.3527 235.7833 15.10984872199628
